NORAD_CAT_ID,OBJECT_NAME,OBJECT_TYPE,EPOCH,MEAN_MOTION,ECCENTRICITY,INCLINATION,RA_OF_ASC_NODE,ARG_OF_PERICENTER,MEAN_ANOMALY,BSTAR,MEAN_MOTION_DOT,MEAN_MOTION_DDOT,TLE_LINE0,TLE_LINE1,TLE_LINE2,SEMIMAJOR_AXIS,PERIOD,APOGEE,PERIGEE,DECAYED
53293.0,STARLINK-4148,PAYLOAD,2022-10-08 14:00:01,15.73237103,0.0004275,53.2152,26.9658,0.8235,24.5962,-0.00040749,-0.00057548,0.0,0 STARLINK-4148,1 53293U 22086BD  22281.58334491 -.00057548  00000-0 -40749-3 0  9990,2 53293  53.2152  26.9658 0004275   0.8235  24.5962 15.73237103  1308,6727.7890000000025,91.531,352.531,346.778,0.0
53293.0,STARLINK-4148,PAYLOAD,2022-10-08 22:00:00,15.73229465,0.0004296,53.2153,25.3157,357.3675,116.9982,-0.00033147,-0.00046971,0.0,0 STARLINK-4148,1 53293U 22086BD  22281.91667824 -.00046971  00000-0 -33147-3 0  9998,2 53293  53.2153  25.3157 0004296 357.3675 116.9982 15.73229465  1307,6727.811,91.531,352.566,346.786,0.0
53293.0,STARLINK-4148,PAYLOAD,2022-10-09 06:00:00,15.73179577,0.0004048,53.2154,23.6648,355.3266,207.9878,0.00048475,0.00067926,0.0,0 STARLINK-4148,1 53293U 22086BD  22282.25001157  .00067926  00000-0  48475-3 0  9998,2 53293  53.2154  23.6648 0004048 355.3266 207.9878 15.73179577 12702,6727.953,91.534,352.542,347.095,0.0
53293.0,STARLINK-4148,PAYLOAD,2022-10-09 14:00:01,15.7321414,0.0004256,53.2151,22.0173,354.2714,297.9802,-4.1385e-05,-6.436e-05,0.0,0 STARLINK-4148,1 53293U 22086BD  22282.58334491 -.00006436  00000-0 -41385-4 0  9999,2 53293  53.2151  22.0173 0004256 354.2714 297.9802 15.73214140  1308,6727.855,91.532,352.583,346.856,0.0
53293.0,STARLINK-4148,PAYLOAD,2022-10-09 22:00:00,15.73220091,0.000417,53.2149,20.3672,350.8832,30.303,-0.00060021,-0.00084143,0.0,0 STARLINK-4148,1 53293U 22086BD  22282.91667824 -.00084143  00000-0 -60021-3 0  9993,2 53293  53.2149  20.3672 0004170 350.8832  30.3030 15.73220091  1302,6727.8380000000025,91.532,352.5080000000001,346.897,0.0
53293.0,STARLINK-4148,PAYLOAD,2022-10-10 14:00:01,15.73075258,0.0004319,53.2169,17.0457,356.6045,202.3511,0.0014561,0.00207817,0.0,0 STARLINK-4148,1 53293U 22086BD  22283.58334491  .00207817  00000-0  14561-2 0  9998,2 53293  53.2169  17.0457 0004319 356.6045 202.3511 15.73075258 12910,6728.251,91.54,353.022,347.21,0.0
53293.0,STARLINK-4148,PAYLOAD,2022-10-10 22:00:01,15.73424684,0.0004115,53.2158,15.4048,350.9134,297.1811,-0.0052501999999999,-0.00687517,0.0,0 STARLINK-4148,1 53293U 22086BD  22283.91668981 -.00687517  00000-0 -52502-2 0  9997,2 53293  53.2158  15.4048 0004115 350.9134 297.1811 15.73424684 12967,6727.255,91.52,351.88800000000015,346.351,0.0
53293.0,STARLINK-4148,PAYLOAD,2022-10-11 06:00:00,15.73145259,0.000391,53.2152,13.7668,343.7796,33.1046,3.589e-05,4.406e-05,0.0,0 STARLINK-4148,1 53293U 22086BD  22284.25001157  .00004406  00000-0  35890-4 0  9992,2 53293  53.2152  13.7668 0003910 343.7796  33.1046 15.73145259 13020,6728.051,91.536,352.547,347.286,0.0
53293.0,STARLINK-4148,PAYLOAD,2022-10-11 14:00:01,15.73055854,0.0004211,53.2173,12.0955,354.3366,111.4308,0.0016937999999999,0.00242645,0.0,0 STARLINK-4148,1 53293U 22086BD  22284.58334491  .00242645  00000-0  16938-2 0  9997,2 53293  53.2173  12.0955 0004211 354.3366 111.4308 15.73055854  1300,6728.306,91.542,353.004,347.338,0.0
53293.0,STARLINK-4148,PAYLOAD,2022-10-11 22:00:00,15.73202613,0.0004128,53.2144,10.4703,343.9019,210.6814,0.00019326,0.00026599,0.0,0 STARLINK-4148,1 53293U 22086BD  22284.91667824  .00026599  00000-0  19326-3 0  9996,2 53293  53.2144  10.4703 0004128 343.9019 210.6814 15.73202613  1308,6727.888000000001,91.533,352.53,346.975,0.0
53293.0,STARLINK-4148,PAYLOAD,2022-10-12 06:00:00,15.73252855,0.0003904,53.2147,8.814,341.8131,301.7224,-0.00044701,-0.00063063,0.0,0 STARLINK-4148,1 53293U 22086BD  22285.25001157 -.00063063  00000-0 -44701-3 0  9999,2 53293  53.2147   8.8140 0003904 341.8131 301.7224 15.73252855 13178,6727.744000000002,91.53,352.236,346.983,0.0
53293.0,STARLINK-4148,PAYLOAD,2022-10-12 14:00:01,15.73211846,0.0004019999999999,53.2158,7.1578,342.8626,29.6425,-0.00023847,-0.00033991,0.0,0 STARLINK-4148,1 53293U 22086BD  22285.58334491 -.00033991  00000-0 -23847-3 0  9990,2 53293  53.2158   7.1578 0004020 342.8626  29.6425 15.73211846  1303,6727.861,91.532,352.431,347.022,0.0
53293.0,STARLINK-4148,PAYLOAD,2022-10-12 22:00:00,15.73188499,0.0003694,53.2169,5.4975,343.8818,117.5582,0.00017608,0.00024155,0.0,0 STARLINK-4148,1 53293U 22086BD  22285.91667824  .00024155  00000-0  17608-3 0  9994,2 53293  53.2169   5.4975 0003694 343.8818 117.5582 15.73188499  1305,6727.928000000001,91.534,352.278,347.30800000000005,0.0
53293.0,STARLINK-4148,PAYLOAD,2022-10-13 06:00:00,15.73192042,0.0004151,53.2159,3.8593,338.5949,211.7022,0.00043944,0.00061506,0.0,0 STARLINK-4148,1 53293U 22086BD  22286.25001157  .00061506  00000-0  43944-3 0  9996,2 53293  53.2159   3.8593 0004151 338.5949 211.7022 15.73192042 13338,6727.918000000002,91.534,352.576,346.99,0.0
53293.0,STARLINK-4148,PAYLOAD,2022-10-13 14:00:01,15.73321759,0.0004346999999999,53.2169,2.2030000000000003,342.1796,297.0456,-0.0011478,-0.00159634,0.0,0 STARLINK-4148,1 53293U 22086BD  22286.58334491 -.00159634  00000-0 -11478-2 0  9990,2 53293  53.2169   2.2030 0004347 342.1796 297.0456 15.73321759  1307,6727.5480000000025,91.526,352.338,346.48900000000015,0.0
53293.0,STARLINK-4148,PAYLOAD,2022-10-13 20:00:01,15.73205234,0.0004386,53.2172,0.9576,344.0541,272.015,-2.0286e-05,-3.473e-05,0.0,0 STARLINK-4148,1 53293U 22086BD  22286.83335648 -.00003473  00000-0 -20286-4 0  9991,2 53293  53.2172   0.9576 0004386 344.0541 272.0150 15.73205234 13422,6727.88,91.533,352.696,346.7940000000001,0.0
53293.0,STARLINK-4148,PAYLOAD,2022-10-13 22:00:00,15.7320438,0.0004327,53.2174,0.5443,343.7371,24.5005,-2.5223e-06,-9.8e-06,0.0,0 STARLINK-4148,1 53293U 22086BD  22286.91667824 -.00000980  00000-0 -25223-5 0  9991,2 53293  53.2174   0.5443 0004327 343.7371  24.5005 15.73204380  1309,6727.8830000000025,91.533,352.659,346.837,0.0
53293.0,STARLINK-4148,PAYLOAD,2022-10-14 14:00:01,15.7328695,0.0004434999999999,53.2168,357.25199999999984,338.2023,207.8563,-0.00089738,-0.00125261,0.0,0 STARLINK-4148,1 53293U 22086BD  22287.58334491 -.00125261  00000-0 -89738-3 0  9995,2 53293  53.2168 357.2520 0004435 338.2023 207.8563 15.73286950  1301,6727.647,91.528,352.496,346.529,0.0
53293.0,STARLINK-4148,PAYLOAD,2022-10-14 22:00:00,15.73206612,0.0004421,53.2175,355.5955,338.4556,296.5841,-3.4558000000000004e-05,-5.476e-05,0.0,0 STARLINK-4148,1 53293U 22086BD  22287.91667824 -.00005476  00000-0 -34558-4 0  9997,2 53293  53.2175 355.5955 0004421 338.4556 296.5841 15.73206612  1301,6727.876,91.533,352.716,346.767,0.0
53293.0,STARLINK-4148,PAYLOAD,2022-10-15 14:00:01,15.73373382,0.0004497,53.216,352.3094,319.7343,133.2444,-0.0051152,-0.00669885,0.0,0 STARLINK-4148,1 53293U 22086BD  22288.58334491 -.00669885  00000-0 -51152-2 0  9999,2 53293  53.2160 352.3094 0004497 319.7343 133.2444 15.73373382  1308,6727.401,91.523,352.291,346.241,0.0
53293.0,STARLINK-4148,PAYLOAD,2022-10-15 22:00:01,15.73139278,0.0005042,53.2175,350.6456,292.9433,248.8876,-0.0082598999999999,-0.01043662,0.0,0 STARLINK-4148,1 53293U 22086BD  22288.91668981 -.01043662  00000-0 -82599-2 0  9999,2 53293  53.2175 350.6456 0005042 292.9433 248.8876 15.73139278  1302,6728.068,91.537,353.326,346.541,0.0
53293.0,STARLINK-4148,PAYLOAD,2022-10-16 14:00:01,15.71620703,0.0006637,53.2174,347.3507,270.6773,86.973,-0.0087895,-0.01041811,0.0,0 STARLINK-4148,1 53293U 22086BD  22289.58334491 -.01041811  00000-0 -87895-2 0  9997,2 53293  53.2174 347.3507 0006637 270.6773  86.9730 15.71620703  1308,6732.401999999999,91.625,358.735,349.798,0.0
53293.0,STARLINK-4148,PAYLOAD,2022-10-16 22:00:00,15.70879534,0.0003789,53.2175,345.7033,270.5925,173.6271,-0.00938,-0.01072014,0.0,0 STARLINK-4148,1 53293U 22086BD  22289.91667824 -.01072014  00000-0 -93800-2 0  9995,2 53293  53.2175 345.7033 0003789 270.5925 173.6271 15.70879534  1309,6734.519,91.668,358.936,353.832,0.0
53293.0,STARLINK-4148,PAYLOAD,2022-10-17 06:00:00,15.70115475,0.0001153,53.2178,344.0596,272.8878,256.9954,-0.0096231,-0.01064454,0.0,0 STARLINK-4148,1 53293U 22086BD  22290.25001157 -.01064454  00000-0 -96231-2 0  9995,2 53293  53.2178 344.0596 0001153 272.8878 256.9954 15.70115475 13968,6736.704000000002,91.713,359.345,357.792,0.0
53293.0,STARLINK-4148,PAYLOAD,2022-10-17 14:00:01,15.69342644,4.63e-05,53.2176,342.4194,75.6248,179.0116,-0.009704,-0.01041496,0.0,0 STARLINK-4148,1 53293U 22086BD  22290.58334491 -.01041496  00000-0 -97040-2 0  9991,2 53293  53.2176 342.4194 0000463  75.6248 179.0116 15.69342644  1303,6738.915,91.758,361.092,360.468,0.0
53293.0,STARLINK-4148,PAYLOAD,2022-10-17 22:00:00,15.68582985,2.45e-05,53.2175,340.7774,256.273,82.2008,-0.0100019999999999,-0.01040165,0.0,0 STARLINK-4148,1 53293U 22086BD  22290.91667824 -.01040165  00000-0 -10002-1 0  9991,2 53293  53.2175 340.7774 0000245 256.2730  82.2008 15.68582985  1306,6741.090999999999,91.803,363.121,362.791,0.0
53293.0,STARLINK-4148,PAYLOAD,2022-10-18 06:00:00,15.67831414,9.46e-05,53.2176,339.1396,91.239,330.1554,-0.0104599999999999,-0.01053302,0.0,0 STARLINK-4148,1 53293U 22086BD  22291.25001157 -.01053302  00000-0 -10460-1 0  9995,2 53293  53.2176 339.1396 0000946  91.2390 330.1554 15.67831414 14124,6743.245,91.847,365.74800000000016,364.472,0.0
53293.0,STARLINK-4148,PAYLOAD,2022-10-18 14:00:01,15.67065616,0.0001181,53.2173,337.5049,72.9757,70.4306,-0.010674,-0.01042844,0.0,0 STARLINK-4148,1 53293U 22086BD  22291.58334491 -.01042844  00000-0 -10674-1 0  9997,2 53293  53.2173 337.5049 0001181  72.9757  70.4306 15.67065616  1301,6745.441999999999,91.891,368.103,366.51,0.0
53293.0,STARLINK-4148,PAYLOAD,2022-10-18 22:00:00,15.66309687,0.0001139,53.2173,335.8689,79.2216,145.2828,-0.0110739999999999,-0.01048435,0.0,0 STARLINK-4148,1 53293U 22086BD  22291.91667824 -.01048435  00000-0 -11074-1 0  9990,2 53293  53.2173 335.8689 0001139  79.2216 145.2828 15.66309687  1303,6747.611999999999,91.936,370.245,368.708,0.0
